OBJECT_NAME,OBJECT_ID,EPOCH,MEAN_MOTION,ECCENTRICITY,INCLINATION,RA_OF_ASC_NODE,ARG_OF_PERICENTER,MEAN_ANOMALY,EPHEMERIS_TYPE,CLASSIFICATION_TYPE,NORAD_CAT_ID,ELEMENT_SET_NO,REV_AT_EPOCH,BSTAR,MEAN_MOTION_DOT,MEAN_MOTION_DDOT
STARLINK-5679,2023-015U,2023-05-29T02:30:16.992576,15.02542186,.0001249,43.0045,84.3919,259.7099,100.3602,0,U,55467,999,1798,.61089E-4,.622E-5,0
STARLINK-5672,2023-015V,2023-05-29T02:09:30.716640,15.02535038,.0001368,43.0040,84.2791,272.1840,87.8845,0,U,55468,999,1798,.40845E-4,.348E-5,0
STARLINK-5681,2023-015W,2023-05-29T02:17:29.603328,15.02543602,.0001384,43.0043,84.3204,270.2339,89.8345,0,U,55469,999,1798,.82039E-4,.905E-5,0
STARLINK-5708,2023-015X,2023-05-28T21:19:07.877568,15.02558885,.0001422,43.0047,85.3454,260.4226,99.6456,0,U,55470,999,1795,-.36149E-3,-.5086E-4,0
STARLINK-5711,2023-015Y,2023-05-29T02:01:31.276128,15.02536844,.0001384,43.0047,84.2364,264.0056,96.0628,0,U,55471,999,1798,.18845E-4,.51E-6,0
STARLINK-5705,2023-015Z,2023-05-28T19:39:09.224928,15.02530068,.0001401,43.0037,73.5439,270.9491,89.1191,0,U,55472,999,1808,.906E-5,-.81E-6,0
STARLINK-5687,2023-015AA,2023-05-28T21:07:56.735328,15.02534024,.0001359,43.0040,85.2875,264.6234,95.4453,0,U,55473,999,1795,.54849E-6,-.196E-5,0
STARLINK-5689,2023-015AB,2023-05-28T07:43:33.397248,15.02537820,.0001316,43.0043,101.8279,264.9734,95.0958,0,U,55474,999,1771,.42829E-4,.375E-5,0
STARLINK-5650,2023-015AC,2023-05-28T06:41:35.794464,15.02537892,.0001389,43.0040,88.5134,264.7679,95.3005,0,U,55475,999,1786,-.11048E-4,-.353E-5,0
STARLINK-5596,2023-015AD,2023-05-28T04:23:33.094752,15.71356006,.0001839,43.0043,53.7456,253.6097,106.4569,0,U,55476,999,1825,.20213E-4,.2199E-4,0
STARLINK-5685,2023-015AE,2023-05-29T01:55:40.033344,15.02534302,.0001282,43.0031,72.0612,270.1969,89.8726,0,U,55477,999,1812,.72773E-5,-.105E-5,0
STARLINK-5691,2023-015AF,2023-05-29T01:52:27.983424,15.02536650,.0001264,43.0037,72.0453,272.9430,87.1268,0,U,55478,999,1812,.70243E-4,.745E-5,0
STARLINK-5688,2023-015AG,2023-05-29T01:57:15.618528,15.02536768,.0001077,43.0035,72.0686,270.6503,89.4216,0,U,55479,999,1812,.91272E-4,.103E-4,0
STARLINK-5690,2023-015AH,2023-05-28T21:08:35.765664,15.01722784,.000138,43.0049,95.6787,276.0121,84.0564,0,U,55480,999,1783,.77762E-4,.826E-5,0
STARLINK-5694,2023-015AJ,2023-05-28T20:27:47.146464,15.02536169,.0001341,43.0030,98.9327,268.9473,91.1216,0,U,55481,999,1779,.55959E-4,.552E-5,0
STARLINK-5693,2023-015AK,2023-05-29T03:52:51.593664,15.02537225,.0001354,43.0050,96.9474,274.3303,85.7385,0,U,55482,999,1766,.52384E-4,.504E-5,0
STARLINK-5692,2023-015AL,2023-05-28T09:01:42.176640,15.02541335,.0000775,43.0034,101.3775,260.0952,99.9803,0,U,55483,999,1772,.94164E-4,.1069E-4,0
STARLINK-5696,2023-015AM,2023-05-28T08:48:54.860832,15.02538424,.0001337,43.0049,101.3061,268.4142,91.6547,0,U,55484,999,1772,.58859E-4,.592E-5,0
STARLINK-5695,2023-015AN,2023-05-28T20:19:47.192736,15.02542478,.0001067,43.0036,98.8897,268.1246,91.9474,0,U,55485,999,1779,.19701E-3,.2459E-4,0
STARLINK-5704,2023-015AP,2023-05-29T02:53:18.050784,15.01725939,.0001221,43.0046,95.7610,262.7286,97.3418,0,U,55486,999,1785,.74694E-4,.786E-5,0
STARLINK-5701,2023-015AQ,2023-05-28T20:22:59.151936,15.02537577,.000121,43.0033,98.9076,267.5548,92.5156,0,U,55487,999,1779,.1214E-3,.1437E-4,0
STARLINK-5706,2023-015AR,2023-05-29T03:46:27.795360,15.02541146,.0001317,43.0050,96.9085,276.2655,83.8038,0,U,55488,999,1784,.18873E-3,.2347E-4,0
STARLINK-5371,2023-015AS,2023-05-28T07:21:11.702880,15.02539056,.0001325,43.0036,101.7094,275.0941,84.9750,0,U,55489,999,1771,.2035E-3,.2547E-4,0
STARLINK-5373,2023-015AT,2023-05-29T03:40:00.928128,15.02263089,.0000957,43.0046,96.8798,273.0130,87.0603,0,U,55490,999,1766,.38094E-2,.5126E-3,0
STARLINK-5364,2023-015AU,2023-05-29T00:34:09.328512,15.02533652,.0001346,43.0035,71.6290,280.3261,79.7430,0,U,55491,999,1812,.27731E-4,.171E-5,0
STARLINK-5013,2023-015AV,2023-05-29T03:49:39.636192,15.02537076,.0001273,43.0047,96.9268,275.6232,84.4465,0,U,55492,999,1766,.54192E-4,.528E-5,0
STARLINK-5362,2023-015AW,2023-05-29T03:41:40.155936,15.02539872,.0001318,43.0047,96.8853,271.7277,88.3415,0,U,55493,999,1784,.10712E-3,.1244E-4,0
STARLINK-5344,2023-015AX,2023-05-29T03:33:40.845888,15.02535109,.0001447,43.0045,96.8423,273.2588,86.8089,0,U,55494,999,1784,.5326E-4,.516E-5,0
STARLINK-5100,2023-015AY,2023-05-29T01:47:40.197984,15.02540808,.0000915,43.0035,72.0201,255.6367,104.4374,0,U,55495,999,1794,.84368E-4,.936E-5,0
STARLINK-5139,2023-015AZ,2023-05-29T02:53:36.832416,15.83433336,.0012128,42.9952,48.7551,227.7600,132.2244,0,U,55496,999,1839,.35489E-3,.80501E-3,0
