STARLINK-5679           
1 55467U 23015U   23149.10436334  .00000622  00000+0  61089-4 0  9998
2 55467  43.0045  84.3919 0001249 259.7099 100.3602 15.02542186 17987
STARLINK-5672           
1 55468U 23015V   23149.08993885  .00000348  00000+0  40845-4 0  9997
2 55468  43.0040  84.2791 0001368 272.1840  87.8845 15.02535038 17981
STARLINK-5681           
1 55469U 23015W   23149.09548152  .00000905  00000+0  82039-4 0  9992
2 55469  43.0043  84.3204 0001384 270.2339  89.8345 15.02543602 17988
STARLINK-5708           
1 55470U 23015X   23148.88828562 -.00005086  00000+0 -36149-3 0  9993
2 55470  43.0047  85.3454 0001422 260.4226  99.6456 15.02558885 17959
STARLINK-5711           
1 55471U 23015Y   23149.08438977  .00000051  00000+0  18845-4 0  9993
2 55471  43.0047  84.2364 0001384 264.0056  96.0628 15.02536844 17982
STARLINK-5705           
1 55472U 23015Z   23148.81885677 -.00000081  00000+0  90600-5 0  9991
2 55472  43.0037  73.5439 0001401 270.9491  89.1191 15.02530068 18087
STARLINK-5687           
1 55473U 23015AA  23148.88051777 -.00000196  00000+0  54849-6 0  9998
2 55473  43.0040  85.2875 0001359 264.6234  95.4453 15.02534024 17955
STARLINK-5689           
1 55474U 23015AB  23148.32191432  .00000375  00000+0  42829-4 0  9992
2 55474  43.0043 101.8279 0001316 264.9734  95.0958 15.02537820 17710
STARLINK-5650           
1 55475U 23015AC  23148.27888651 -.00000353  00000+0 -11048-4 0  9990
2 55475  43.0040  88.5134 0001389 264.7679  95.3005 15.02537892 17866
STARLINK-5596           
1 55476U 23015AD  23148.18302193  .00002199  00000+0  20213-4 0  9995
2 55476  43.0043  53.7456 0001839 253.6097 106.4569 15.71356006 18257
STARLINK-5685           
1 55477U 23015AE  23149.08032446 -.00000105  00000+0  72773-5 0  9992
2 55477  43.0031  72.0612 0001282 270.1969  89.8726 15.02534302 18123
STARLINK-5691           
1 55478U 23015AF  23149.07810166  .00000745  00000+0  70243-4 0  9993
2 55478  43.0037  72.0453 0001264 272.9430  87.1268 15.02536650 18126
STARLINK-5688           
1 55479U 23015AG  23149.08143077  .00001030  00000+0  91272-4 0  9998
2 55479  43.0035  72.0686 0001077 270.6503  89.4216 15.02536768 18129
STARLINK-5690           
1 55480U 23015AH  23148.88096951  .00000826  00000+0  77762-4 0  9995
2 55480  43.0049  95.6787 0001380 276.0121  84.0564 15.01722784 17830
STARLINK-5694           
1 55481U 23015AJ  23148.85262901  .00000552  00000+0  55959-4 0  9993
2 55481  43.0030  98.9327 0001341 268.9473  91.1216 15.02536169 17793
STARLINK-5693           
1 55482U 23015AK  23149.16170826  .00000504  00000+0  52384-4 0  9999
2 55482  43.0050  96.9474 0001354 274.3303  85.7385 15.02537225 17660
STARLINK-5692           
1 55483U 23015AL  23148.37618260  .00001069  00000+0  94164-4 0  9990
2 55483  43.0034 101.3775 0000775 260.0952  99.9803 15.02541335 17722
STARLINK-5696           
1 55484U 23015AM  23148.36730163  .00000592  00000+0  58859-4 0  9998
2 55484  43.0049 101.3061 0001337 268.4142  91.6547 15.02538424 17724
STARLINK-5695           
1 55485U 23015AN  23148.84707399  .00002459  00000+0  19701-3 0  9993
2 55485  43.0036  98.8897 0001067 268.1246  91.9474 15.02542478 17793
STARLINK-5704           
1 55486U 23015AP  23149.12034781  .00000786  00000+0  74694-4 0  9998
2 55486  43.0046  95.7610 0001221 262.7286  97.3418 15.01725939 17859
STARLINK-5701           
1 55487U 23015AQ  23148.84929574  .00001437  00000+0  12140-3 0  9991
2 55487  43.0033  98.9076 0001210 267.5548  92.5156 15.02537577 17798
STARLINK-5706           
1 55488U 23015AR  23149.15726615  .00002347  00000+0  18873-3 0  9998
2 55488  43.0050  96.9085 0001317 276.2655  83.8038 15.02541146 17845
STARLINK-5371           
1 55489U 23015AS  23148.30638545  .00002547  00000+0  20350-3 0  9994
2 55489  43.0036 101.7094 0001325 275.0941  84.9750 15.02539056 17715
STARLINK-5373           
1 55490U 23015AT  23149.15278852  .00051260  00000+0  38094-2 0  9990
2 55490  43.0046  96.8798 0000957 273.0130  87.0603 15.02263089 17666
STARLINK-5364           
1 55491U 23015AU  23149.02371908  .00000171  00000+0  27731-4 0  9996
2 55491  43.0035  71.6290 0001346 280.3261  79.7430 15.02533652 18126
STARLINK-5013           
1 55492U 23015AV  23149.15948653  .00000528  00000+0  54192-4 0  9995
2 55492  43.0047  96.9268 0001273 275.6232  84.4465 15.02537076 17662
STARLINK-5362           
1 55493U 23015AW  23149.15393699  .00001244  00000+0  10712-3 0  9995
2 55493  43.0047  96.8853 0001318 271.7277  88.3415 15.02539872 17842
STARLINK-5344           
1 55494U 23015AX  23149.14838942  .00000516  00000+0  53260-4 0  9997
2 55494  43.0045  96.8423 0001447 273.2588  86.8089 15.02535109 17848
STARLINK-5100           
1 55495U 23015AY  23149.07477081  .00000936  00000+0  84368-4 0  9992
2 55495  43.0035  72.0201 0000915 255.6367 104.4374 15.02540808 17943
STARLINK-5139           
1 55496U 23015AZ  23149.12056519  .00080501  00000+0  35489-3 0  9993
2 55496  42.9952  48.7551 0012128 227.7600 132.2244 15.83433336 18398
